TEVEL2-3                
1 63218U 25052J   26068.64540225  .00020365  00000+0  69446-3 0  9991
2 63218  97.3994 324.7775 0004761 105.7353 254.4413 15.30377031 54855
STARLINK-33815          
1 63497U 25071E   26068.47234660  .00018500  00000+0  63531-3 0  9992
2 63497  53.1584 141.1464 0001162  71.7777 288.3350 15.30192762 52736
